HORYU-4                 
1 41340U 16012D   19274.15641340  .00000582  00000-0  37443-4 0  9999
2 41340  31.0042 189.2258 0013836  85.9078 274.3139 15.01320429198720
E-ST@R-II               
1 41459U 16025D   19274.21693015  .00000781  00000-0  43952-4 0  9990
2 41459  98.1010   5.9777 0167555   7.4640 352.9099 15.05669069188279
AAUSAT 4                
1 41460U 16025E   19274.32524128  .00002063  00000-0  10625-3 0  9997
2 41460  98.0959   7.6009 0156992 358.7279   1.3531 15.07646346188431
DIWATA-1                
1 41463U 98067HT  19274.43250706  .00044478  00000-0  17691-3 0  9992
2 41463  51.6276  61.2939 0000951 215.7369 178.2846 15.86191765196376
BEESAT-4                
1 41619U 16040W   19273.83515811  .00001451  00000-0  63963-4 0  9998
2 41619  97.3572 334.0714 0011853  25.7116 334.4708 15.23327690169719
CANX-7                  
1 41788U 16059F   19274.29880461  .00006659  00000-0  99452-3 0  9998
2 41788  98.2452 351.4624 0026197  50.4477 309.9108 14.74885609161423
RAVAN                   
1 41849U 16067B   19274.51188056  .00000803  00000-0  72607-4 0  9990
2 41849  97.9254  15.2177 0009600  41.7522 318.4430 14.98317409157690
CELTEE 1                
1 41850U 16067C   19273.74277562  .00000215  00000-0  23895-4 0  9999
2 41850  97.9192  12.8793 0009431  43.6796 316.5169 14.97047241157495
OPTICUBE 04             
1 41851U 16067D   19273.89911732  .00000647  00000-0  61761-4 0  9993
2 41851  97.9195  12.7843 0009988  46.5980 313.6071 14.96835725157501
AEROCUBE 8D             
1 41852U 16067E   19273.84081167  .00000355  00000-0  36328-4 0  9996
2 41852  97.9206  12.5512 0010775  45.6662 314.5441 14.96764014157478
AEROCUBE 8C             
1 41853U 16067F   19273.86620185 -.00000007  00000-0  47416-5 0  9994
2 41853  97.9195  12.5049 0010757  44.9634 315.2456 14.96722091157475
PROMETHEUS 2-1          
1 41854U 16067G   19274.28570441  .00000781  00000-0  73159-4 0  9991
2 41854  97.9204  13.1116 0011007  44.8764 315.3345 14.96962503157541
PROMETHEUS 2-3          
1 41855U 16067H   19273.81976118  .00000796  00000-0  74447-4 0  9998
2 41855  97.9208  12.6598 0011249  46.5935 313.6220 14.96968559157473
INS-1B                  
1 41954U 17008G   19274.15383738  .00001422  00000-0  61333-4 0  9999
2 41954  97.3900 337.7802 0010435 131.7400 228.4731 15.24137891145718
BGUSAT                  
1 41999U 17008BD  19274.18281478  .00002754  00000-0  10844-3 0  9998
2 41999  97.3981 340.6328 0009328 141.9835 218.2063 15.26427178145230
DIDO-2                  
1 42000U 17008BE  19273.75405030  .00000968  00000-0  42831-4 0  9993
2 42000  97.3913 337.9378 0009335 148.9688 211.2103 15.24031484145051
PEASSS                  
1 42015U 17008BV  19274.17600861  .00001344  00000-0  56649-4 0  9996
2 42015  97.3924 339.4764 0007134 149.3768 210.7888 15.25032498145673
AL-FARABI 1             
1 42016U 17008BW  19274.19569596  .00001685  00000-0  68906-4 0  9995
2 42016  97.3941 340.1613 0007053 148.4721 211.6941 15.25711791145832
NAYIF-1 (EO-88)         
1 42017U 17008BX  19273.72179156  .00001644  00000-0  67227-4 0  9993
2 42017  97.3936 339.7035 0007024 149.9616 210.2027 15.25745052145787
ALTAIR PATHFINDER       
1 42711U 98067LS  19274.53929282  .00114295  15901-4  37740-3 0  9994
2 42711  51.6297 102.8720 0003077 221.5253 138.5520 15.90283728135710
NSIGHT                  
1 42726U 98067MF  19274.14565016  .00034693  00000-0  22692-3 0  9991
2 42726  51.6330 132.9976 0004734 206.9262 153.1493 15.75456425134269
UCLSAT                  
1 42765U 17036A   19274.14727658  .00001259  00000-0  56570-4 0  9998
2 42765  97.3403 329.8723 0010414 215.6110 144.4433 15.22914019126367
LITUANICASAT-2          
1 42768U 17036D   19274.11902302  .00002283  00000-0  99575-4 0  9999
2 42768  97.3441 329.5136 0014315 206.9152 153.1344 15.23082969126202
AALTO-1                 
1 42775U 17036L   19273.71315250  .00000806  00000-0  38838-4 0  9996
2 42775  97.3386 327.9517 0013110 209.3294 150.7207 15.21451862126020
URSA MAIOR              
1 42776U 17036M   19274.38795513  .00000934  00000-0  44354-4 0  9997
2 42776  97.3395 328.7922 0012995 206.6442 153.4128 15.21596447126138
COMPASS 2               
1 42777U 17036N   19274.19807451  .00001786  00000-0  78523-4 0  9993
2 42777  97.3439 330.0571 0011718 206.8469 153.2163 15.23122599126173
DIAMOND RED             
1 42783U 17036U   19273.90190750  .00001029  00000-0  47556-4 0  9997
2 42783  97.3403 329.1478 0011075 218.3159 141.7292 15.22342559126103
PEGASUS                 
1 42784U 17036V   19274.12332565  .00001169  00000-0  53140-4 0  9996
2 42784  97.3407 329.6351 0010974 216.7354 143.3131 15.22654883126150
DIAMOND GREEN           
1 42785U 17036W   19274.16365591  .00001019  00000-0  47131-4 0  9993
2 42785  97.3405 329.4305 0010972 217.9172 142.1293 15.22342011126136
DIAMOND BLUE            
1 42786U 17036X   19274.16283019  .00001003  00000-0  46443-4 0  9996
2 42786  97.3404 329.4271 0010816 218.0271 142.0203 15.22342287126132
NUDTSAT                 
1 42787U 17036Y   19273.92169345  .00001211  00000-0  53359-4 0  9990
2 42787  97.3449 330.2962 0009674 223.2209 136.8273 15.23689578126011
SUCHAI                  
1 42788U 17036Z   19274.10114811  .00001403  00000-0  62387-4 0  9994
2 42788  97.3412 329.9855 0010583 215.3963 144.6572 15.23099323126245
SKCUBE                  
1 42789U 17036AA  19273.86130903  .00001312  00000-0  58713-4 0  9994
2 42789  97.3409 329.6725 0010407 216.5834 143.4693 15.22986159126129
VZLUSAT-1               
1 42790U 17036AB  19273.71178884  .00001742  00000-0  75458-4 0  9992
2 42790  97.3426 330.0899 0010022 215.2962 144.7613 15.23687277126136
ROBUSTA-1B              
1 42792U 17036AD  19273.84624721  .00001351  00000-0  60073-4 0  9997
2 42792  97.3410 329.8324 0009976 216.8595 143.1957 15.23161881126148
CICERO 6                
1 42793U 17036AE  19274.39504573  .00000957  00000-0  43984-4 0  9994
2 42793  97.3390 330.0656 0009237 216.4183 143.6426 15.22705077126288
D-SAT                   
1 42794U 17036AF  19274.08974558  .00000151  00000-0  18386-4 0  9999
2 42794  97.5293 314.1445 0127268 153.0444 207.7463 14.91139439123898
CORVUS BC2              
1 42846U 17042X   19273.76610104  .00000253  00000-0  30190-4 0  9992
2 42846  97.5513 163.5434 0011119  70.8551 289.3872 14.92003773120537
CORVUS BC1              
1 42847U 17042Y   19274.24883182  .00000345  00000-0  39174-4 0  9998
2 42847  97.5513 164.1298 0010711  68.9152 291.3211 14.92104890120605
MIRATA                  
1 43015U 17073C   19274.00453256  .00000686  00000-0  58793-4 0  9995
2 43015  97.7165 191.1560 0254806 177.5164 182.7382 14.79126377100716
MAKERSAT 0              
1 43016U 17073D   19274.30790776  .00000537  00000-0  47159-4 0  9999
2 43016  97.7200 191.6503 0257213 177.0408 183.2401 14.78841772100743
ASTERIA                 
1 43020U 98067NH  19274.09081245  .00039576  00000-0  26550-3 0  9992
2 43020  51.6408 144.9268 0002339 170.0516 190.0530 15.74817006106280
DELLINGR (RBLE)         
1 43021U 98067NJ  19274.13262400  .00012482  00000-0  13204-3 0  9991
2 43021  51.6372 163.8486 0002894 134.3921 225.7311 15.64583310106035
AEROCUBE 7B (OCSD B)    
1 43042U 17071F   19274.14428687  .00003460  00000-0  90183-4 0  9990
2 43042  51.6372 262.0709 0004492 166.6882 193.4223 15.41707938102193
AEROCUBE 7C (OCSD C)    
1 43043U 17071G   19274.14426787  .00003436  00000-0  89624-4 0  9991
2 43043  51.6372 262.0854 0004681 171.4551 188.6515 15.41707566102166
CHEFSAT                 
1 43044U 17071H   19273.94604463  .00006772  00000-0  15148-3 0  9993
2 43044  51.6381 255.6645 0004352 168.9947 191.1135 15.44703452102236
ASGARDIA 1              
1 43049U 17071N   19274.54178728  .00003936  00000-0  10083-3 0  9997
2 43049  51.6382 259.5301 0002090 181.7977 178.3001 15.41832269102221
ISARA                   
1 43050U 17071P   19274.12494871  .00006686  00000-0  15227-3 0  9993
2 43050  51.6367 256.0527 0001902 172.6400 187.4615 15.44184851102232
PROPCUBE 2 (FAUNA)      
1 43052U 17071R   19274.13877393  .00003841  00000-0  97666-4 0  9998
2 43052  51.6379 260.6080 0002080 174.9034 185.1973 15.42138251102174
CORVUS BC3              
1 43118U 18004H   19274.40740543  .00000893  00000-0  41029-4 0  9990
2 43118  97.4771 341.3711 0008980 240.3785 119.6558 15.22962919 95418
MICROMAS-2A             
1 43131U 18004W   19273.86247537  .00001857  00000-0  78752-4 0  9993
2 43131  97.4802 341.7651 0007929 242.7050 117.3380 15.24373115 95388
SPACEBEE-4              
1 43139U 18004AE  19273.88919311  .00002991  00000-0  12166-3 0  9995
2 43139  97.4823 342.4367 0007338 244.2206 115.8275 15.25308651 95420
SPACEBEE-3              
1 43140U 18004AF  19273.89539559  .00003625  00000-0  14421-3 0  9991
2 43140  97.4834 342.7873 0007132 243.1075 116.9434 15.25908508 95441
SPACEBEE-2              
1 43141U 18004AG  19274.18075264  .00003984  00000-0  15722-3 0  9996
2 43141  97.4839 343.1904 0007145 241.0768 118.9754 15.26116996 95492
SPACEBEE-1              
1 43142U 18004AH  19274.19827842  .00004700  00000-0  18366-3 0  9999
2 43142  97.4841 343.3427 0007140 240.6603 119.3923 15.26348515 95493
CICERO 7                
1 43143U 18004AJ  19273.74622778  .00001789  00000-0  75753-4 0  9999
2 43143  97.4787 341.8626 0005960 253.7342 106.3240 15.24485370 95385
GOMX-4B                 
1 43196U 18015E   19274.43149669  .00000402  00000-0  19502-4 0  9990
2 43196  97.4034  40.5813 0018460 302.1689  57.7754 15.24016169 92293
GOMX-4A                 
1 43197U 18015F   19274.41406333  .00000573  00000-0  26442-4 0  9993
2 43197  97.4060  40.6008 0018104 303.2935  97.9257 15.24123932 92304
1KUNS-PF                
1 43466U 98067NP  19274.13172277  .00034204  00000-0  28332-3 0  9990
2 43466  51.6354 163.0336 0001917 147.6566 212.4549 15.69901212 79306
